{
  "type": "FeatureCollection",
  "features": [
    {
      "type": "Feature",
      "properties": {
        "norad_id": 57400,
        "name": "TIANMU-1 08",
        "group": "weather",
        "lat": 30.606936476915774,
        "lon": 37.83372014105853,
        "alt_km": 475.76850672912406,
        "timestamp": "2025-12-18T15:47:10.862897+00:00",
        "meta_object_name": "TIANMU-1 08",
        "meta_object_id": "2023-101B",
        "meta_epoch": "2025-12-18T06:13:20.728416",
        "meta_mean_motion": 15.28132945,
        "meta_eccentricity": 0.00073332,
        "meta_inclination": 97.2863,
        "meta_ra_of_asc_node": 41.7849,
        "meta_arg_of_pericenter": 68.3286,
        "meta_mean_anomaly": 291.8734,
        "meta_ephemeris_type": 0,
        "meta_classification_type": "U",
        "meta_norad_cat_id": 57400,
        "meta_element_set_no": 999,
        "meta_rev_at_epoch": 13399,
        "meta_bstar": 0.00022968182,
        "meta_mean_motion_dot": 6.231e-05,
        "meta_mean_motion_ddot": 0,
        "tle_line1": "1 57400U 23101B   25352.25926769  .00006231  00000+0  22968-3 0  9997",
        "tle_line2": "2 57400  97.2863  41.7849 0007333  68.3286 291.8734 15.28132945133994"
      },
      "geometry": {
        "type": "Point",
        "coordinates": [
          37.83372014105853,
          30.606936476915774
        ]
      }
    },
    {
      "type": "Feature",
      "properties": {
        "norad_id": 57401,
        "name": "TIANMU-1 09",
        "group": "weather",
        "lat": 73.8878589091213,
        "lon": -112.04074835217732,
        "alt_km": 470.61001229977865,
        "timestamp": "2025-12-18T15:47:10.862907+00:00",
        "meta_object_name": "TIANMU-1 09",
        "meta_object_id": "2023-101C",
        "meta_epoch": "2025-12-18T07:28:26.853024",
        "meta_mean_motion": 15.28165675,
        "meta_eccentricity": 0.00066155,
        "meta_inclination": 97.2819,
        "meta_ra_of_asc_node": 41.3464,
        "meta_arg_of_pericenter": 68.725,
        "meta_mean_anomaly": 291.4695,
        "meta_ephemeris_type": 0,
        "meta_classification_type": "U",
        "meta_norad_cat_id": 57401,
        "meta_element_set_no": 999,
        "meta_rev_at_epoch": 13400,
        "meta_bstar": 0.00023858773,
        "meta_mean_motion_dot": 6.481e-05,
        "meta_mean_motion_ddot": 0,
        "tle_line1": "1 57401U 23101C   25352.31142191  .00006481  00000+0  23859-3 0  9991",
        "tle_line2": "2 57401  97.2819  41.3464 0006615  68.7250 291.4695 15.28165675134003"
      },
      "geometry": {
        "type": "Point",
        "coordinates": [
          -112.04074835217732,
          73.8878589091213
        ]
      }
    },
    {
      "type": "Feature",
      "properties": {
        "norad_id": 57402,
        "name": "TIANMU-1 10",
        "group": "weather",
        "lat": -80.55306474885528,
        "lon": 92.83694092134665,
        "alt_km": 493.6372059933665,
        "timestamp": "2025-12-18T15:47:10.862917+00:00",
        "meta_object_name": "TIANMU-1 10",
        "meta_object_id": "2023-101D",
        "meta_epoch": "2025-12-18T06:43:27.954624",
        "meta_mean_motion": 15.2815701,
        "meta_eccentricity": 0.00083361,
        "meta_inclination": 97.2899,
        "meta_ra_of_asc_node": 42.1714,
        "meta_arg_of_pericenter": 67.5634,
        "meta_mean_anomaly": 292.6488,
        "meta_ephemeris_type": 0,
        "meta_classification_type": "U",
        "meta_norad_cat_id": 57402,
        "meta_element_set_no": 999,
        "meta_rev_at_epoch": 13399,
        "meta_bstar": 0.00024756789,
        "meta_mean_motion_dot": 6.728e-05,
        "meta_mean_motion_ddot": 0,
        "tle_line1": "1 57402U 23101D   25352.28018466  .00006728  00000+0  24757-3 0  9997",
        "tle_line2": "2 57402  97.2899  42.1714 0008336  67.5634 292.6488 15.28157010133998"
      },
      "geometry": {
        "type": "Point",
        "coordinates": [
          92.83694092134665,
          -80.55306474885528
        ]
      }
    },
    {
      "type": "Feature",
      "properties": {
        "norad_id": 57490,
        "name": "FENGYUN 3F",
        "group": "weather",
        "lat": 33.37600434662649,
        "lon": 55.060907957910686,
        "alt_km": 823.4537218224496,
        "timestamp": "2025-12-18T15:47:10.862927+00:00",
        "meta_object_name": "FENGYUN 3F",
        "meta_object_id": "2023-111A",
        "meta_epoch": "2025-12-18T07:10:17.420736",
        "meta_mean_motion": 14.19895004,
        "meta_eccentricity": 7.226e-05,
        "meta_inclination": 98.7077,
        "meta_ra_of_asc_node": 60.5024,
        "meta_arg_of_pericenter": 110.5599,
        "meta_mean_anomaly": 249.5656,
        "meta_ephemeris_type": 0,
        "meta_classification_type": "U",
        "meta_norad_cat_id": 57490,
        "meta_element_set_no": 999,
        "meta_rev_at_epoch": 12319,
        "meta_bstar": 5.3713776e-05,
        "meta_mean_motion_dot": 7e-07,
        "meta_mean_motion_ddot": 0,
        "tle_line1": "1 57490U 23111A   25352.29881274  .00000070  00000+0  53714-4 0  9991",
        "tle_line2": "2 57490  98.7077  60.5024 0000722 110.5599 249.5656 14.19895004123197"
      },
      "geometry": {
        "type": "Point",
        "coordinates": [
          55.060907957910686,
          33.37600434662649
        ]
      }
    },
    {
      "type": "Feature",
      "properties": {
        "norad_id": 58584,
        "name": "ARKTIKA-M 2",
        "group": "weather",
        "lat": 54.632179925588765,
        "lon": -51.139964169568486,
        "alt_km": 30334.80616617861,
        "timestamp": "2025-12-18T15:47:10.862940+00:00",
        "meta_object_name": "ARKTIKA-M 2",
        "meta_object_id": "2023-198A",
        "meta_epoch": "2025-12-17T19:31:00.124032",
        "meta_mean_motion": 2.0060326,
        "meta_eccentricity": 0.68652638,
        "meta_inclination": 63.225,
        "meta_ra_of_asc_node": 174.3391,
        "meta_arg_of_pericenter": 268.0846,
        "meta_mean_anomaly": 18.8392,
        "meta_ephemeris_type": 0,
        "meta_classification_type": "U",
        "meta_norad_cat_id": 58584,
        "meta_element_set_no": 999,
        "meta_rev_at_epoch": 1468,
        "meta_bstar": 0,
        "meta_mean_motion_dot": 2.02e-06,
        "meta_mean_motion_ddot": 0,
        "tle_line1": "1 58584U 23198A   25351.81319588  .00000202  00000+0  00000+0 0  9994",
        "tle_line2": "2 58584  63.2250 174.3391 6865263 268.0846  18.8392  2.00603260 14687"
      },
      "geometry": {
        "type": "Point",
        "coordinates": [
          -51.139964169568486,
          54.632179925588765
        ]
      }
    },
    {
      "type": "Feature",
      "properties": {
        "norad_id": 58645,
        "name": "TIANMU-1 11",
        "group": "weather",
        "lat": 20.912205844798617,
        "lon": 9.346557391932663,
        "alt_km": 492.2878360687573,
        "timestamp": "2025-12-18T15:47:10.862951+00:00",
        "meta_object_name": "TIANMU-1 11",
        "meta_object_id": "2023-205A",
        "meta_epoch": "2025-12-18T07:49:06.629952",
        "meta_mean_motion": 15.24667408,
        "meta_eccentricity": 0.00076189,
        "meta_inclination": 97.3598,
        "meta_ra_of_asc_node": 11.8513,
        "meta_arg_of_pericenter": 286.912,
        "meta_mean_anomaly": 73.1282,
        "meta_ephemeris_type": 0,
        "meta_classification_type": "U",
        "meta_norad_cat_id": 58645,
        "meta_element_set_no": 999,
        "meta_rev_at_epoch": 10994,
        "meta_bstar": 0.00022576469,
        "meta_mean_motion_dot": 5.511e-05,
        "meta_mean_motion_ddot": 0,
        "tle_line1": "1 58645U 23205A   25352.32577118  .00005511  00000+0  22576-3 0  9997",
        "tle_line2": "2 58645  97.3598  11.8513 0007618 286.9120  73.1282 15.24667408109949"
      },
      "geometry": {
        "type": "Point",
        "coordinates": [
          9.346557391932663,
          20.912205844798617
        ]
      }
    },
    {
      "type": "Feature",
      "properties": {
        "norad_id": 58646,
        "name": "TIANMU-1 12",
        "group": "weather",
        "lat": -50.324313596451034,
        "lon": -176.9820327432097,
        "alt_km": 495.80167602471374,
        "timestamp": "2025-12-18T15:47:10.862962+00:00",
        "meta_object_name": "TIANMU-1 12",
        "meta_object_id": "2023-205B",
        "meta_epoch": "2025-12-18T06:54:00.876096",
        "meta_mean_motion": 15.24551184,
        "meta_eccentricity": 0.00057588,
        "meta_inclination": 97.3586,
        "meta_ra_of_asc_node": 11.6173,
        "meta_arg_of_pericenter": 266.1129,
        "meta_mean_anomaly": 93.945,
        "meta_ephemeris_type": 0,
        "meta_classification_type": "U",
        "meta_norad_cat_id": 58646,
        "meta_element_set_no": 999,
        "meta_rev_at_epoch": 10992,
        "meta_bstar": 0.00023171228,
        "meta_mean_motion_dot": 5.636e-05,
        "meta_mean_motion_ddot": 0,
        "tle_line1": "1 58646U 23205B   25352.28751014  .00005636  00000+0  23171-3 0  9992",
        "tle_line2": "2 58646  97.3586  11.6173 0005758 266.1129  93.9450 15.24551184109927"
      },
      "geometry": {
        "type": "Point",
        "coordinates": [
          -176.9820327432097,
          -50.324313596451034
        ]
      }
    }
  ]
}